{"type": "FeatureCollection", "features": [{"type": "Feature", "geometry": {"type": "Point", "coordinates": [13.00073, 55.60587]}, "properties": {"id": "bloc-01", "country": "se", "name": "1 · Corridor d'accès", "type": "bloc", "source": "interne", "updated": "2026-09-10", "numero": 1, "dates": "15–18 avril · 4 jours", "contenu": "Lyon → Allemagne → Danemark → Øresund. Transit assumé.", "ancrage": "Malmö"}}, {"type": "Feature", "geometry": {"type": "Point", "coordinates": [14.35037, 55.55653]}, "properties": {"id": "bloc-02", "country": "se", "name": "2 · Suède du Sud", "type": "bloc", "source": "interne", "updated": "2026-09-10", "numero": 2, "dates": "19–25 avril · 7 jours", "contenu": "Österlen, la côte de Scanie, le Glasriket dans les forêts du Småland.", "etape": "2.1 Österlen et Glasriket", "ancrage": "Simrishamn"}}, {"type": "Feature", "geometry": {"type": "Point", "coordinates": [18.06871, 59.32938]}, "properties": {"id": "bloc-03", "country": "se", "name": "3 · Stockholm et son archipel", "type": "bloc", "source": "interne", "updated": "2026-09-10", "numero": 3, "dates": "26 avril – 2 mai · 7 jours", "contenu": "La capitale, la vieille ville, puis l'archipel encore endormi.", "etape": "3.1 Stockholm", "ancrage": "Stockholm"}}, {"type": "Feature", "geometry": {"type": "Point", "coordinates": [15.62597, 60.60357]}, "properties": {"id": "bloc-04", "country": "se", "name": "4 · La Dalécarlie", "type": "bloc", "source": "interne", "updated": "2026-09-10", "numero": 4, "dates": "3–7 mai · 5 jours", "contenu": "Le lac, la mine de cuivre, la maison du peintre, le rouge de Falun.", "etape": "4.1 Dalécarlie", "ancrage": "Falun"}}, {"type": "Feature", "geometry": {"type": "Point", "coordinates": [18.71525, 63.29091]}, "properties": {"id": "bloc-05", "country": "se", "name": "5 · La Höga Kusten", "type": "bloc", "source": "interne", "updated": "2026-09-10", "numero": 5, "dates": "8–14 mai · 7 jours", "contenu": "Remontée par Sundsvall, puis la Haute Côte et son relèvement du sol.", "etape": "5.1 Höga Kusten", "ancrage": "Örnsköldsvik"}}, {"type": "Feature", "geometry": {"type": "Point", "coordinates": [14.63566, 63.1792]}, "properties": {"id": "bloc-06", "country": "se", "name": "6 · Barreau E14 — d'est en ouest", "type": "bloc", "source": "interne", "updated": "2026-09-10", "numero": 6, "dates": "15–20 mai · 6 jours", "contenu": "Östersund, le Jämtland, Åre, Storlien, et descente sur Trondheim.", "etape": "6.1 Jämtland et Åre", "ancrage": "Östersund"}}, {"type": "Feature", "geometry": {"type": "Point", "coordinates": [12.21285, 65.47487]}, "properties": {"id": "bloc-07", "country": "no", "name": "7 · Kystriksveien — la côte de l'Helgeland", "type": "bloc", "source": "interne", "updated": "2026-09-10", "numero": 7, "dates": "21 mai – 1er juin · 12 jours", "contenu": "630 km et six ferries de Steinkjer à Bodø : Torghatten, les Sept Sœurs.", "etape": "7.1 Kystriksveien", "ancrage": "Brønnøysund"}}, {"type": "Feature", "geometry": {"type": "Point", "coordinates": [17.4272, 68.43838]}, "properties": {"id": "bloc-08", "country": "no", "name": "8 · Narvik et antenne de Laponie suédoise", "type": "bloc", "source": "interne", "updated": "2026-09-10", "numero": 8, "dates": "2–8 juin · 7 jours", "contenu": "Remontée sur Narvik, puis aller-retour sur l'E10 vers Abisko.", "etape": "8.1 Laponie suédoise", "ancrage": "Narvik"}}, {"type": "Feature", "geometry": {"type": "Point", "coordinates": [14.56834, 68.23417]}, "properties": {"id": "bloc-09", "country": "no", "name": "9 · Lofoten et Vesterålen", "type": "bloc", "source": "interne", "updated": "2026-09-10", "numero": 9, "dates": "9–19 juin · 11 jours", "contenu": "Antenne depuis Narvik. Solstice : soleil de minuit au maximum.", "etape": "9.1 Lofoten", "ancrage": "Svolvær"}}, {"type": "Feature", "geometry": {"type": "Point", "coordinates": [18.95508, 69.6489]}, "properties": {"id": "bloc-10", "country": "no", "name": "10 · Senja et Tromsø", "type": "bloc", "source": "interne", "updated": "2026-09-10", "numero": 10, "dates": "20–28 juin · 9 jours", "contenu": "La côte des grandes îles, puis le sas logistique avant le Finnmark.", "etape": "10.1 Senja et Tromsø", "ancrage": "Tromsø"}}, {"type": "Feature", "geometry": {"type": "Point", "coordinates": [23.27165, 69.96887]}, "properties": {"id": "bloc-11", "country": "no", "name": "11 · Alta et le Cap Nord", "type": "bloc", "source": "interne", "updated": "2026-09-10", "numero": 11, "dates": "29 juin – 3 juillet · 5 jours", "contenu": "Gravures rupestres, canyon, plateau nu, falaise arctique.", "etape": "11.1 Alta et Cap Nord", "ancrage": "Alta"}}, {"type": "Feature", "geometry": {"type": "Point", "coordinates": [31.11066, 70.37048]}, "properties": {"id": "bloc-12", "country": "no", "name": "12 · Varanger et Hornøya", "type": "bloc", "source": "interne", "updated": "2026-09-10", "numero": 12, "dates": "4–13 juillet · 10 jours", "contenu": "Le bloc que tout le calendrier sert : toundra, Ekkerøy, Vardø, Hornøya.", "etape": "12.1 Varanger", "ancrage": "Vardø"}}, {"type": "Feature", "geometry": {"type": "Point", "coordinates": [27.02881, 68.90596]}, "properties": {"id": "bloc-13", "country": "fi", "name": "13 · Laponie finlandaise", "type": "bloc", "source": "interne", "updated": "2026-09-10", "numero": 13, "dates": "14 juillet – 2 août · 20 jours", "contenu": "Bascule par Neiden ou Utsjoki : Inari, Lemmenjoki, l'Utsjoki.", "etape": "13.1 Inari", "ancrage": "Inari"}}, {"type": "Feature", "geometry": {"type": "Point", "coordinates": [29.18878, 65.96447]}, "properties": {"id": "bloc-14", "country": "fi", "name": "14 · Finlande des forêts et des lacs", "type": "bloc", "source": "interne", "updated": "2026-09-10", "numero": 14, "dates": "3–30 août · 28 jours", "contenu": "Oulanka et Kuusamo, Koli, le Saimaa et la région des lacs.", "etape": "14.1 Oulanka", "ancrage": "Kuusamo"}}, {"type": "Feature", "geometry": {"type": "Point", "coordinates": [22.26869, 60.45148]}, "properties": {"id": "bloc-15", "country": "fi", "name": "15 · Finlande du Sud", "type": "bloc", "source": "interne", "updated": "2026-09-10", "numero": 15, "dates": "31 août – 20 septembre · 21 jours", "contenu": "Archipel de Turku, Porvoo, Helsinki. Fin de la partie nordique.", "etape": "15.1 Turku et Helsinki", "ancrage": "Turku"}}, {"type": "Feature", "geometry": {"type": "Point", "coordinates": [24.75353, 59.43696]}, "properties": {"id": "bloc-16", "country": "ee", "name": "16 · Corridor de retour", "type": "bloc", "source": "interne", "updated": "2026-09-10", "numero": 16, "dates": "21–30 septembre · 10 jours", "contenu": "Ferry Helsinki–Tallinn, puis Via Baltica en corridor : Riga, Vilnius.", "ancrage": "Tallinn"}}]}