{"type": "FeatureCollection", "features": [{"type": "Feature", "geometry": {"type": "LineString", "coordinates": [[13.61028, 56.4904], [13.60999, 56.49054], [13.6097, 56.49069], [13.60889, 56.49111], [13.60827, 56.49143], [13.60748, 56.49183], [13.60692, 56.49212], [13.60667, 56.49226], [13.60644, 56.49234]]}, "properties": {"id": "trv-10083:280014-3:223932-0.6179_1.0000", "country": "se", "source": "TRV", "updated": "2026-09-12", "name": "largeur max 2.5", "type": "largeur_limitee", "valeur": 2.5, "franchissable": true}}, {"type": "Feature", "geometry": {"type": "LineString", "coordinates": [[14.31998, 61.08304], [14.32015, 61.083], [14.32036, 61.08299], [14.32055, 61.08302], [14.32257, 61.08385], [14.32314, 61.08408], [14.32323, 61.0841]]}, "properties": {"id": "trv-10086:169710-3:565414-0.0000_1.0000", "country": "se", "source": "TRV", "updated": "2026-09-12", "name": "largeur max 2.4", "type": "largeur_limitee", "valeur": 2.4, "franchissable": true}}, {"type": "Feature", "geometry": {"type": "LineString", "coordinates": [[13.53506, 56.19391], [13.53519, 56.19401], [13.53531, 56.19408], [13.53548, 56.19414], [13.53559, 56.19414], [13.53571, 56.19412], [13.53592, 56.19409], [13.53605, 56.19408], [13.53614, 56.19413], [13.53621, 56.19414], [13.53639, 56.19413], [13.5367, 56.19407], [13.53694, 56.19404], [13.53741, 56.19395]]}, "properties": {"id": "trv-10086:170527-3:1506622-0.6045_0.7492", "country": "se", "source": "TRV", "updated": "2026-09-12", "name": "largeur max 2.4", "type": "largeur_limitee", "valeur": 2.4, "franchissable": true}}, {"type": "Feature", "geometry": {"type": "LineString", "coordinates": [[17.01723, 63.3475], [17.01734, 63.34759], [17.01886, 63.34867], [17.01903, 63.3488]]}, "properties": {"id": "trv-13621:56841-3:734711-0.3978_0.8780", "country": "se", "source": "TRV", "updated": "2026-09-12", "name": "largeur max 2.2", "type": "largeur_limitee", "valeur": 2.2, "franchissable": true}}, {"type": "Feature", "geometry": {"type": "LineString", "coordinates": [[14.14837, 61.14697], [14.14833, 61.14702], [14.14819, 61.14711], [14.14774, 61.14731], [14.1472, 61.14757], [14.147, 61.14765], [14.14683, 61.14775], [14.14677, 61.1478], [14.14672, 61.14789], [14.14674, 61.14797], [14.1468, 61.14805], [14.14684, 61.14808]]}, "properties": {"id": "trv-12725:187538-3:562040-0.0000_1.0000", "country": "se", "source": "TRV", "updated": "2026-09-12", "occurrences": 3, "name": "largeur max 2.4", "type": "largeur_limitee", "valeur": 2.4, "franchissable": true}}, {"type": "Feature", "geometry": {"type": "LineString", "coordinates": [[14.14623, 61.14727], [14.14636, 61.14734], [14.14646, 61.14736], [14.1466, 61.14737], [14.14673, 61.14734], [14.1478, 61.14683], [14.14795, 61.14679], [14.14811, 61.14678], [14.1482, 61.14678], [14.14832, 61.14682], [14.1484, 61.14688], [14.14841, 61.14691], [14.14837, 61.14697]]}, "properties": {"id": "trv-12725:187538-3:562047-0.0000_1.0000", "country": "se", "source": "TRV", "updated": "2026-09-12", "occurrences": 3, "name": "largeur max 2.4", "type": "largeur_limitee", "valeur": 2.4, "franchissable": true}}, {"type": "Feature", "geometry": {"type": "LineString", "coordinates": [[14.14165, 61.14398], [14.14623, 61.14727]]}, "properties": {"id": "trv-12725:187538-3:562187-0.0000_1.0000", "country": "se", "source": "TRV", "updated": "2026-09-12", "occurrences": 3, "name": "largeur max 2.4", "type": "largeur_limitee", "valeur": 2.4, "franchissable": true}}, {"type": "Feature", "geometry": {"type": "LineString", "coordinates": [[17.94297, 59.3297], [17.94271, 59.32969], [17.9425, 59.32969]]}, "properties": {"id": "trv-10716:39487-12723:23338-0.7674_0.9635", "country": "se", "source": "TRV", "updated": "2026-09-12", "name": "largeur max 2.0", "type": "largeur_limitee", "valeur": 2.0, "franchissable": false}}, {"type": "Feature", "geometry": {"type": "LineString", "coordinates": [[17.93718, 65.52504], [17.93749, 65.52544], [17.93769, 65.5257], [17.93789, 65.52596], [17.93808, 65.52622], [17.93828, 65.52649], [17.93848, 65.52675], [17.93867, 65.52701], [17.93886, 65.52727], [17.93905, 65.52754], [17.93924, 65.5278]]}, "properties": {"id": "trv-16529:306-3:930831-0.0000_1.0000", "country": "se", "source": "TRV", "updated": "2026-09-12", "occurrences": 4, "name": "largeur max 2.5", "type": "largeur_limitee", "valeur": 2.5, "franchissable": true}}, {"type": "Feature", "geometry": {"type": "LineString", "coordinates": [[17.93718, 65.52504], [17.93696, 65.52476], [17.93664, 65.52434], [17.93633, 65.52392], [17.93603, 65.52349], [17.93574, 65.52307], [17.93556, 65.52285], [17.93541, 65.52262], [17.93528, 65.52239], [17.93518, 65.52216], [17.93511, 65.52193], [17.93502, 65.52171], [17.93493, 65.52149], [17.93484, 65.52126], [17.93475, 65.52104], [17.93467, 65.52081], [17.93458, 65.52059], [17.9345, 65.52037], [17.93441, 65.52014], [17.93433, 65.51992], [17.93425, 65.5197], [17.93409, 65.51929], [17.93394, 65.51888], [17.93378, 65.51848], [17.93363, 65.51807], [17.93333, 65.51727], [17.93316, 65.51684], [17.93311, 65.51673], [17.93304, 65.51647], [17.93303, 65.5162], [17.9331, 65.51594], [17.93319, 65.5157], [17.93333, 65.51552], [17.93352, 65.51535], [17.93386, 65.51512], [17.93435, 65.51481], [17.9346, 65.51461], [17.9348, 65.5144], [17.93493, 65.51418], [17.935, 65.51395], [17.93512, 65.51357], [17.93524, 65.51332], [17.9354, 65.51306], [17.93559, 65.51281], [17.93587, 65.51249]]}, "properties": {"id": "trv-16529:306-3:930944-0.0000_1.0000", "country": "se", "source": "TRV", "updated": "2026-09-12", "occurrences": 4, "name": "largeur max 2.5", "type": "largeur_limitee", "valeur": 2.5, "franchissable": true}}, {"type": "Feature", "geometry": {"type": "LineString", "coordinates": [[17.93587, 65.51249], [17.93617, 65.51225], [17.93647, 65.51204], [17.93679, 65.51183], [17.93739, 65.51146], [17.93786, 65.51115], [17.93842, 65.51081], [17.93874, 65.51061], [17.93905, 65.51042], [17.93936, 65.51022], [17.93967, 65.51002], [17.94025, 65.50966], [17.94082, 65.5093], [17.9414, 65.50893], [17.94191, 65.50861], [17.94222, 65.50842], [17.94254, 65.50822], [17.94285, 65.50802], [17.94336, 65.50771], [17.94391, 65.50735], [17.94447, 65.50701], [17.94503, 65.50666], [17.94563, 65.50629], [17.94622, 65.50592], [17.94682, 65.50555], [17.94736, 65.5052], [17.9479, 65.50486], [17.94844, 65.50452], [17.94902, 65.50417], [17.94943, 65.50391], [17.94984, 65.50365], [17.95026, 65.5034], [17.95068, 65.50314], [17.95109, 65.50289], [17.95169, 65.50252], [17.95228, 65.50215], [17.95288, 65.50177], [17.95341, 65.50144], [17.95392, 65.5011], [17.95447, 65.50072], [17.95476, 65.50051], [17.95505, 65.5003], [17.95539, 65.50005], [17.95541, 65.50003]]}, "properties": {"id": "trv-16529:306-3:930997-0.0000_1.0000", "country": "se", "source": "TRV", "updated": "2026-09-12", "occurrences": 4, "name": "largeur max 2.5", "type": "largeur_limitee", "valeur": 2.5, "franchissable": true}}, {"type": "Feature", "geometry": {"type": "LineString", "coordinates": [[17.95541, 65.50003], [17.95586, 65.4997], [17.95634, 65.49934], [17.95683, 65.49897], [17.95724, 65.49868], [17.95764, 65.49839], [17.95805, 65.49809], [17.95845, 65.4978], [17.95884, 65.49751], [17.95922, 65.4972]]}, "properties": {"id": "trv-16529:306-3:931006-0.0000_1.0000", "country": "se", "source": "TRV", "updated": "2026-09-12", "occurrences": 4, "name": "largeur max 2.5", "type": "largeur_limitee", "valeur": 2.5, "franchissable": true}}, {"type": "Feature", "geometry": {"type": "LineString", "coordinates": [[18.29645, 57.63985], [18.29671, 57.64006], [18.29708, 57.64036], [18.2975, 57.64071], [18.29752, 57.64078]]}, "properties": {"id": "trv-16409:751-3:40567-0.0000_1.0000", "country": "se", "source": "TRV", "updated": "2026-09-12", "name": "largeur max 2.0", "type": "largeur_limitee", "valeur": 2.0, "franchissable": false}}, {"type": "Feature", "geometry": {"type": "LineString", "coordinates": [[20.91207, 64.7489], [20.91206, 64.74892], [20.91206, 64.74904], [20.91214, 64.74916], [20.91219, 64.7492], [20.9123, 64.74928], [20.91384, 64.75009], [20.91488, 64.75062], [20.91508, 64.75072], [20.91534, 64.75083], [20.91536, 64.75084], [20.9158, 64.75103], [20.91607, 64.75116], [20.91614, 64.75119], [20.9163, 64.75127], [20.91654, 64.75142], [20.91693, 64.75167], [20.91704, 64.75176], [20.91719, 64.75188], [20.91721, 64.75189]]}, "properties": {"id": "trv-15612:58-3:953112-0.0000_1.0000", "country": "se", "source": "TRV", "updated": "2026-09-12", "name": "largeur max 2.0", "type": "largeur_limitee", "valeur": 2.0, "franchissable": false}}, {"type": "Feature", "geometry": {"type": "LineString", "coordinates": [[14.87548, 56.25048], [14.87549, 56.25048], [14.87585, 56.25044], [14.87653, 56.25034], [14.87666, 56.25033], [14.87676, 56.25034], [14.87688, 56.25037], [14.87703, 56.25041], [14.87719, 56.25045], [14.87742, 56.25051], [14.87765, 56.25056], [14.87799, 56.25062], [14.8781, 56.25062], [14.87821, 56.25061], [14.87833, 56.25058], [14.87846, 56.25052], [14.87863, 56.25042], [14.87879, 56.2503], [14.87897, 56.25018], [14.87928, 56.24999], [14.87953, 56.24992], [14.88001, 56.24985], [14.8807, 56.24974], [14.88141, 56.24962], [14.88188, 56.24957], [14.88235, 56.24956], [14.88266, 56.24957], [14.88292, 56.24959], [14.88341, 56.24961], [14.88376, 56.24963], [14.88424, 56.24967], [14.88453, 56.24957], [14.88464, 56.24956], [14.88478, 56.24955], [14.88493, 56.24959], [14.88505, 56.24964], [14.8852, 56.24969], [14.8853, 56.24973], [14.88536, 56.24973], [14.88545, 56.24972], [14.88563, 56.24967], [14.88591, 56.24957], [14.88622, 56.24948], [14.88659, 56.24934], [14.88679, 56.24927], [14.88719, 56.24914], [14.88753, 56.24904], [14.88776, 56.24898], [14.88793, 56.24894], [14.88803, 56.24888], [14.88808, 56.24881], [14.88809, 56.24869]]}, "properties": {"id": "trv-19323:1091-3:344690-0.0000_1.0000", "country": "se", "source": "TRV", "updated": "2026-09-12", "name": "largeur max 2.4", "type": "largeur_limitee", "valeur": 2.4, "franchissable": true}}, {"type": "Feature", "geometry": {"type": "LineString", "coordinates": [[20.94999, 64.7484], [20.94997, 64.74835], [20.94996, 64.74833], [20.94914, 64.74594], [20.94911, 64.74577]]}, "properties": {"id": "trv-12737:95227-3:953256-0.1466_1.0000", "country": "se", "source": "TRV", "updated": "2026-09-12", "name": "largeur max 2.0", "type": "largeur_limitee", "valeur": 2.0, "franchissable": false}}, {"type": "Feature", "geometry": {"type": "LineString", "coordinates": [[14.41424, 60.53013], [14.41298, 60.52929], [14.41274, 60.52913]]}, "properties": {"id": "trv-13622:73815-3:602698-0.5045_1.0000", "country": "se", "source": "TRV", "updated": "2026-09-12", "occurrences": 2, "name": "largeur max 2.2", "type": "largeur_limitee", "valeur": 2.2, "franchissable": true}}, {"type": "Feature", "geometry": {"type": "LineString", "coordinates": [[14.41274, 60.52913], [14.41275, 60.52912]]}, "properties": {"id": "trv-13622:73815-3:602777-0.0000_0.0029", "country": "se", "source": "TRV", "updated": "2026-09-12", "occurrences": 2, "name": "largeur max 2.2", "type": "largeur_limitee", "valeur": 2.2, "franchissable": true}}, {"type": "Feature", "geometry": {"type": "LineString", "coordinates": [[11.95713, 57.70006], [11.95736, 57.70004], [11.95818, 57.69997], [11.95852, 57.69993], [11.95877, 57.69991], [11.95898, 57.6999], [11.95915, 57.6999], [11.9593, 57.69989], [11.9595, 57.69989], [11.95971, 57.69989]]}, "properties": {"id": "trv-16183:239826-3:1361603-0.0000_0.6811", "country": "se", "source": "TRV", "updated": "2026-09-12", "occurrences": 2, "name": "largeur max 2.4", "type": "largeur_limitee", "valeur": 2.4, "franchissable": true}}, {"type": "Feature", "geometry": {"type": "LineString", "coordinates": [[11.95987, 57.69986], [11.95978, 57.69988], [11.95971, 57.69989]]}, "properties": {"id": "trv-16183:239826-20531:209311-0.9466_1.0000", "country": "se", "source": "TRV", "updated": "2026-09-12", "occurrences": 2, "name": "largeur max 2.4", "type": "largeur_limitee", "valeur": 2.4, "franchissable": true}}, {"type": "Feature", "geometry": {"type": "LineString", "coordinates": [[11.65788, 57.73369], [11.65788, 57.73381], [11.65791, 57.73388], [11.65793, 57.73393], [11.65797, 57.73398], [11.658, 57.73404], [11.65804, 57.7341], [11.65809, 57.73415], [11.65815, 57.73421], [11.65832, 57.73431], [11.65835, 57.73433], [11.65837, 57.73434], [11.65842, 57.73436], [11.65846, 57.73438], [11.6585, 57.73441], [11.65854, 57.73447], [11.65858, 57.73454], [11.65858, 57.73457], [11.65857, 57.73461], [11.65853, 57.73466], [11.65847, 57.73473], [11.65841, 57.73479], [11.65837, 57.73484], [11.65821, 57.73506], [11.65809, 57.7352], [11.65804, 57.73524], [11.65798, 57.73527], [11.65794, 57.73529], [11.65787, 57.73531], [11.65775, 57.73532], [11.65767, 57.73534], [11.65761, 57.73538], [11.65756, 57.73542], [11.65749, 57.7355], [11.65742, 57.73557], [11.65736, 57.73563], [11.65723, 57.73572], [11.65718, 57.73574], [11.65712, 57.73574], [11.65693, 57.73572], [11.65687, 57.73571], [11.65681, 57.73569], [11.65675, 57.73567], [11.65669, 57.73565], [11.65665, 57.73564], [11.6566, 57.73563]]}, "properties": {"id": "trv-13820:2575-3:1350689-0.0000_1.0000", "country": "se", "source": "TRV", "updated": "2026-09-12", "name": "largeur max 2.0", "type": "largeur_limitee", "valeur": 2.0, "franchissable": false}}, {"type": "Feature", "geometry": {"type": "LineString", "coordinates": [[14.34843, 55.51255], [14.34846, 55.51256], [14.34847, 55.51258], [14.3485, 55.51261], [14.34851, 55.51265], [14.34852, 55.51279], [14.34852, 55.51289], [14.34853, 55.51292], [14.34855, 55.51294], [14.34857, 55.51297], [14.34857, 55.513], [14.34854, 55.51303]]}, "properties": {"id": "trv-10721:32872-3:1586402-0.0000_0.4729", "country": "se", "source": "TRV", "updated": "2026-09-12", "occurrences": 2, "name": "largeur max 2.2", "type": "largeur_limitee", "valeur": 2.2, "franchissable": true}}, {"type": "Feature", "geometry": {"type": "LineString", "coordinates": [[14.34808, 55.51183], [14.34809, 55.51183], [14.34813, 55.51184], [14.34815, 55.51185], [14.3482, 55.51191], [14.34824, 55.51204], [14.34825, 55.5122], [14.34821, 55.51226], [14.34821, 55.5123], [14.34823, 55.51234], [14.34826, 55.51238], [14.3483, 55.51243], [14.34834, 55.51246], [14.34838, 55.51252], [14.3484, 55.51254], [14.34843, 55.51255]]}, "properties": {"id": "trv-10721:32872-3:1586444-0.0000_1.0000", "country": "se", "source": "TRV", "updated": "2026-09-12", "occurrences": 2, "name": "largeur max 2.2", "type": "largeur_limitee", "valeur": 2.2, "franchissable": true}}, {"type": "Feature", "geometry": {"type": "LineString", "coordinates": [[15.8528, 57.6647], [15.8528, 57.66471], [15.85277, 57.66475], [15.85272, 57.66479], [15.8527, 57.66482], [15.85264, 57.66486], [15.85258, 57.66488], [15.85254, 57.6649], [15.85253, 57.66493], [15.85252, 57.66496], [15.85254, 57.66499], [15.85256, 57.66502], [15.85257, 57.66502], [15.8526, 57.66506]]}, "properties": {"id": "trv-11096:122072-3:801944-0.5063_1.0000", "country": "se", "source": "TRV", "updated": "2026-09-12", "occurrences": 2, "name": "largeur max 2.0", "type": "largeur_limitee", "valeur": 2.0, "franchissable": false}}, {"type": "Feature", "geometry": {"type": "LineString", "coordinates": [[15.8526, 57.66506], [15.85261, 57.66513], [15.85266, 57.66522], [15.8527, 57.66527], [15.85272, 57.66531], [15.85273, 57.66535], [15.85275, 57.66539]]}, "properties": {"id": "trv-11096:122072-16181:564-0.0000_1.0000", "country": "se", "source": "TRV", "updated": "2026-09-12", "occurrences": 2, "name": "largeur max 2.0", "type": "largeur_limitee", "valeur": 2.0, "franchissable": false}}, {"type": "Feature", "geometry": {"type": "LineString", "coordinates": [[12.03118, 57.65531], [12.03122, 57.65526]]}, "properties": {"id": "trv-11094:63875-3:1373627-0.6282_0.6670", "country": "se", "source": "TRV", "updated": "2026-09-12", "name": "largeur max 2.3", "type": "largeur_limitee", "valeur": 2.3, "franchissable": true}}, {"type": "Feature", "geometry": {"type": "LineString", "coordinates": [[14.22651, 55.68608], [14.22677, 55.68612], [14.22706, 55.6862], [14.22722, 55.68618], [14.2274, 55.68615], [14.22748, 55.68613], [14.22759, 55.68609], [14.22771, 55.68604]]}, "properties": {"id": "trv-16182:10409333-3:1563752-0.0000_0.4210", "country": "se", "source": "TRV", "updated": "2026-09-12", "name": "largeur max 2.8", "type": "largeur_limitee", "valeur": 2.8, "franchissable": true}}, {"type": "Feature", "geometry": {"type": "LineString", "coordinates": [[17.95633, 59.32077], [17.95616, 59.3208], [17.95581, 59.32085], [17.95573, 59.32086], [17.9553, 59.32092], [17.95514, 59.32094]]}, "properties": {"id": "trv-22520:8048-12726:28804-0.0000_1.0000", "country": "se", "source": "TRV", "updated": "2026-09-12", "name": "largeur max 2.0", "type": "largeur_limitee", "valeur": 2.0, "franchissable": false}}]}