{"type": "FeatureCollection", "features": [{"type": "Feature", "geometry": {"type": "Point", "coordinates": [5.77786, 61.17842]}, "properties": {"id": "no-tunnel-78728489", "country": "no", "name": "Bogstunnelen", "type": "tunnel", "source": "NVDB", "updated": "2026-09-10", "route": "E39", "kommune": 4638, "longueur_m": 3500, "sous_marin": false, "restriction_marchandises_dangereuses": false, "note_marchandises": null, "velo_interdit": true, "annee": 2004, "motifs": "long"}}, {"type": "Feature", "geometry": {"type": "Point", "coordinates": [7.78994, 61.05472]}, "properties": {"id": "no-tunnel-78729243", "country": "no", "name": "Borgundstunnelen", "type": "tunnel", "source": "NVDB", "updated": "2026-09-10", "route": "E16", "kommune": 4642, "longueur_m": 3100, "sous_marin": false, "restriction_marchandises_dangereuses": false, "note_marchandises": null, "velo_interdit": true, "annee": 2004, "motifs": "long"}}, {"type": "Feature", "geometry": {"type": "Point", "coordinates": [5.21352, 61.87396]}, "properties": {"id": "no-tunnel-78730377", "country": "no", "name": "Skatestraumtunnelen", "type": "tunnel", "source": "NVDB", "updated": "2026-09-10", "route": "F616", "kommune": 4648, "longueur_m": 1902, "sous_marin": true, "restriction_marchandises_dangereuses": false, "note_marchandises": "Ingen restriksjoner på transport av farlig gods", "velo_interdit": false, "annee": 2002, "motifs": "sous-marin"}}, {"type": "Feature", "geometry": {"type": "Point", "coordinates": [7.38068, 60.97364]}, "properties": {"id": "no-tunnel-78731474", "country": "no", "name": "Lærdalstunnelen", "type": "tunnel", "source": "NVDB", "updated": "2026-09-10", "route": "E16", "kommune": 4641, "longueur_m": 24500, "sous_marin": false, "restriction_marchandises_dangereuses": false, "note_marchandises": null, "velo_interdit": true, "annee": 2000, "motifs": "long"}}, {"type": "Feature", "geometry": {"type": "Point", "coordinates": [5.69882, 61.54284]}, "properties": {"id": "no-tunnel-78737835", "country": "no", "name": "Naustdalstunnelen", "type": "tunnel", "source": "NVDB", "updated": "2026-09-10", "route": "R5", "kommune": 4647, "longueur_m": 6000, "sous_marin": false, "restriction_marchandises_dangereuses": false, "note_marchandises": null, "velo_interdit": true, "annee": 1995, "motifs": "long"}}, {"type": "Feature", "geometry": {"type": "Point", "coordinates": [7.3224, 61.1715]}, "properties": {"id": "no-tunnel-78738433", "country": "no", "name": "Amlatunnelen", "type": "tunnel", "source": "NVDB", "updated": "2026-09-10", "route": "R5", "kommune": 4640, "longueur_m": 3000, "sous_marin": false, "restriction_marchandises_dangereuses": false, "note_marchandises": null, "velo_interdit": true, "annee": 1995, "motifs": "long"}}, {"type": "Feature", "geometry": {"type": "Point", "coordinates": [7.45249, 61.12925]}, "properties": {"id": "no-tunnel-78738838", "country": "no", "name": "Fodnestunnelen", "type": "tunnel", "source": "NVDB", "updated": "2026-09-10", "route": "R5", "kommune": 4642, "longueur_m": 6600, "sous_marin": false, "restriction_marchandises_dangereuses": false, "note_marchandises": null, "velo_interdit": true, "annee": 1995, "motifs": "long"}}, {"type": "Feature", "geometry": {"type": "Point", "coordinates": [6.82099, 61.36332]}, "properties": {"id": "no-tunnel-78739835", "country": "no", "name": "Frudalstunnelen", "type": "tunnel", "source": "NVDB", "updated": "2026-09-10", "route": "R5", "kommune": 4640, "longueur_m": 6800, "sous_marin": false, "restriction_marchandises_dangereuses": false, "note_marchandises": null, "velo_interdit": true, "annee": 1994, "motifs": "long"}}, {"type": "Feature", "geometry": {"type": "Point", "coordinates": [6.68708, 61.49328]}, "properties": {"id": "no-tunnel-78740720", "country": "no", "name": "Fjærlandstunnelen", "type": "tunnel", "source": "NVDB", "updated": "2026-09-10", "route": "R5", "kommune": 4647, "longueur_m": 6400, "sous_marin": false, "restriction_marchandises_dangereuses": false, "note_marchandises": null, "velo_interdit": true, "annee": 1986, "motifs": "long"}}, {"type": "Feature", "geometry": {"type": "Point", "coordinates": [6.15599, 61.2059]}, "properties": {"id": "no-tunnel-78742909", "country": "no", "name": "Høyangertunnelen", "type": "tunnel", "source": "NVDB", "updated": "2026-09-10", "route": "F55", "kommune": 4638, "longueur_m": 7543, "sous_marin": false, "restriction_marchandises_dangereuses": false, "note_marchandises": "Ingen restriksjoner på transport av farlig gods", "velo_interdit": true, "annee": 1982, "motifs": "long"}}, {"type": "Feature", "geometry": {"type": "Point", "coordinates": [6.95115, 60.88606]}, "properties": {"id": "no-tunnel-78743988", "country": "no", "name": "Gudvangatunnelen", "type": "tunnel", "source": "NVDB", "updated": "2026-09-10", "route": "E16", "kommune": 4641, "longueur_m": 11400, "sous_marin": false, "restriction_marchandises_dangereuses": false, "note_marchandises": null, "velo_interdit": true, "annee": 1991, "motifs": "long"}}, {"type": "Feature", "geometry": {"type": "Point", "coordinates": [7.09381, 60.88577]}, "properties": {"id": "no-tunnel-78745606", "country": "no", "name": "Flenjatunnelen", "type": "tunnel", "source": "NVDB", "updated": "2026-09-10", "route": "E16", "kommune": 4641, "longueur_m": 5100, "sous_marin": false, "restriction_marchandises_dangereuses": false, "note_marchandises": null, "velo_interdit": true, "annee": 1991, "motifs": "long"}}, {"type": "Feature", "geometry": {"type": "Point", "coordinates": [7.39138, 60.82401]}, "properties": {"id": "no-tunnel-78747225", "country": "no", "name": "Berdaltunnelen", "type": "tunnel", "source": "NVDB", "updated": "2026-09-10", "route": "F50", "kommune": 4641, "longueur_m": 4200, "sous_marin": false, "restriction_marchandises_dangereuses": false, "note_marchandises": "Ingen restriksjoner på transport av farlig gods", "velo_interdit": false, "annee": 1985, "motifs": "long"}}, {"type": "Feature", "geometry": {"type": "Point", "coordinates": [7.34658, 61.99708]}, "properties": {"id": "no-tunnel-78748301", "country": "no", "name": "Oppljostunnelen", "type": "tunnel", "source": "NVDB", "updated": "2026-09-10", "route": "R15", "kommune": 4651, "longueur_m": 4600, "sous_marin": false, "restriction_marchandises_dangereuses": false, "note_marchandises": null, "velo_interdit": true, "annee": 1978, "motifs": "long"}}, {"type": "Feature", "geometry": {"type": "Point", "coordinates": [7.27339, 61.98124]}, "properties": {"id": "no-tunnel-78749917", "country": "no", "name": "Grasdaltunnelen", "type": "tunnel", "source": "NVDB", "updated": "2026-09-10", "route": "R15", "kommune": 4651, "longueur_m": 3700, "sous_marin": false, "restriction_marchandises_dangereuses": false, "note_marchandises": null, "velo_interdit": true, "annee": 1978, "motifs": "long"}}, {"type": "Feature", "geometry": {"type": "Point", "coordinates": [6.27332, 58.82268]}, "properties": {"id": "no-tunnel-79603110", "country": "no", "name": "Frafjordtunnelen", "type": "tunnel", "source": "NVDB", "updated": "2026-09-10", "route": "F4414", "kommune": 1122, "longueur_m": 3800, "sous_marin": false, "restriction_marchandises_dangereuses": false, "note_marchandises": null, "velo_interdit": false, "annee": 1999, "motifs": "long"}}, {"type": "Feature", "geometry": {"type": "Point", "coordinates": [5.70081, 59.08712]}, "properties": {"id": "no-tunnel-79604497", "country": "no", "name": "Mastrafjordtunnelen", "type": "tunnel", "source": "NVDB", "updated": "2026-09-10", "route": "E39", "kommune": 1103, "longueur_m": 4400, "sous_marin": true, "restriction_marchandises_dangereuses": false, "note_marchandises": null, "velo_interdit": true, "annee": 1991, "motifs": "sous-marin, long"}}, {"type": "Feature", "geometry": {"type": "Point", "coordinates": [5.62387, 59.03438]}, "properties": {"id": "no-tunnel-79606017", "country": "no", "name": "Byfjordtunnelen", "type": "tunnel", "source": "NVDB", "updated": "2026-09-10", "route": "E39", "kommune": 1103, "longueur_m": 5800, "sous_marin": true, "restriction_marchandises_dangereuses": false, "note_marchandises": null, "velo_interdit": true, "annee": 1991, "motifs": "sous-marin, long"}}, {"type": "Feature", "geometry": {"type": "Point", "coordinates": [8.17923, 62.58949]}, "properties": {"id": "no-tunnel-80554551", "country": "no", "name": "Viketunnelen", "type": "tunnel", "source": "NVDB", "updated": "2026-09-10", "route": "F6012", "kommune": 1506, "longueur_m": 4280, "sous_marin": false, "restriction_marchandises_dangereuses": false, "note_marchandises": null, "velo_interdit": false, "annee": 1990, "motifs": "long"}}, {"type": "Feature", "geometry": {"type": "Point", "coordinates": [6.10087, 62.12054]}, "properties": {"id": "no-tunnel-80554563", "country": "no", "name": "Rotsethorntunnelen", "type": "tunnel", "source": "NVDB", "updated": "2026-09-10", "route": "E39", "kommune": 1577, "longueur_m": 4300, "sous_marin": false, "restriction_marchandises_dangereuses": false, "note_marchandises": null, "velo_interdit": true, "annee": 2004, "motifs": "long"}}, {"type": "Feature", "geometry": {"type": "Point", "coordinates": [8.47778, 62.69835]}, "properties": {"id": "no-tunnel-80556550", "country": "no", "name": "Øksendalstunnelen", "type": "tunnel", "source": "NVDB", "updated": "2026-09-10", "route": "F62", "kommune": 1563, "longueur_m": 6000, "sous_marin": false, "restriction_marchandises_dangereuses": false, "note_marchandises": null, "velo_interdit": false, "annee": 2000, "motifs": "long"}}, {"type": "Feature", "geometry": {"type": "Point", "coordinates": [6.954, 62.40443]}, "properties": {"id": "no-tunnel-80558214", "country": "no", "name": "Stordalstunnelen", "type": "tunnel", "source": "NVDB", "updated": "2026-09-10", "route": "F650", "kommune": 1578, "longueur_m": 3500, "sous_marin": false, "restriction_marchandises_dangereuses": false, "note_marchandises": null, "velo_interdit": false, "annee": 1998, "motifs": "long"}}, {"type": "Feature", "geometry": {"type": "Point", "coordinates": [7.39873, 62.27264]}, "properties": {"id": "no-tunnel-80559454", "country": "no", "name": "Heggurtunnelen", "type": "tunnel", "source": "NVDB", "updated": "2026-09-10", "route": "F5928", "kommune": 1578, "longueur_m": 4900, "sous_marin": false, "restriction_marchandises_dangereuses": false, "note_marchandises": null, "velo_interdit": false, "annee": 1981, "motifs": "long"}}, {"type": "Feature", "geometry": {"type": "Point", "coordinates": [7.7943, 63.00318]}, "properties": {"id": "no-tunnel-80559932", "country": "no", "name": "Freifjordtunnelen", "type": "tunnel", "source": "NVDB", "updated": "2026-09-10", "route": "R70", "kommune": 1557, "longueur_m": 5100, "sous_marin": true, "restriction_marchandises_dangereuses": false, "note_marchandises": null, "velo_interdit": true, "annee": 1992, "motifs": "sous-marin, long"}}, {"type": "Feature", "geometry": {"type": "Point", "coordinates": [7.61137, 62.52934]}, "properties": {"id": "no-tunnel-80560801", "country": "no", "name": "Innfjordtunnelen", "type": "tunnel", "source": "NVDB", "updated": "2026-09-10", "route": "E136", "kommune": 1539, "longueur_m": 6600, "sous_marin": false, "restriction_marchandises_dangereuses": false, "note_marchandises": null, "velo_interdit": true, "annee": 1991, "motifs": "long"}}, {"type": "Feature", "geometry": {"type": "Point", "coordinates": [6.047, 62.49347]}, "properties": {"id": "no-tunnel-80562051", "country": "no", "name": "Godøytunnelen", "type": "tunnel", "source": "NVDB", "updated": "2026-09-10", "route": "F5957", "kommune": 1532, "longueur_m": 3830, "sous_marin": true, "restriction_marchandises_dangereuses": false, "note_marchandises": null, "velo_interdit": true, "annee": 1989, "motifs": "sous-marin, long"}}, {"type": "Feature", "geometry": {"type": "Point", "coordinates": [6.14912, 62.50167]}, "properties": {"id": "no-tunnel-80562484", "country": "no", "name": "Valderøytunnelen", "type": "tunnel", "source": "NVDB", "updated": "2026-09-10", "route": "R658", "kommune": 1532, "longueur_m": 4200, "sous_marin": true, "restriction_marchandises_dangereuses": true, "note_marchandises": "Tidsrom 07 - 09 og 14 - 18", "velo_interdit": true, "annee": 1987, "motifs": "sous-marin, long, marchandises dangereuses"}}, {"type": "Feature", "geometry": {"type": "Point", "coordinates": [6.18287, 62.4852]}, "properties": {"id": "no-tunnel-80563517", "country": "no", "name": "Ellingsøytunnelen", "type": "tunnel", "source": "NVDB", "updated": "2026-09-10", "route": "R658", "kommune": 1508, "longueur_m": 3500, "sous_marin": true, "restriction_marchandises_dangereuses": true, "note_marchandises": "Tidsrom 07 - 09 og 14 - 18", "velo_interdit": true, "annee": 1987, "motifs": "sous-marin, long, marchandises dangereuses"}}, {"type": "Feature", "geometry": {"type": "Point", "coordinates": [6.88421, 62.10135]}, "properties": {"id": "no-tunnel-80565337", "country": "no", "name": "Streketunnelen", "type": "tunnel", "source": "NVDB", "updated": "2026-09-10", "route": "F60", "kommune": 1525, "longueur_m": 3800, "sous_marin": false, "restriction_marchandises_dangereuses": false, "note_marchandises": null, "velo_interdit": false, "annee": 1962, "motifs": "long"}}, {"type": "Feature", "geometry": {"type": "Point", "coordinates": [10.21036, 59.75031]}, "properties": {"id": "no-tunnel-81504557", "country": "no", "name": "Bragernestunnelen", "type": "tunnel", "source": "NVDB", "updated": "2026-09-10", "route": "F283", "kommune": 3301, "longueur_m": 3300, "sous_marin": false, "restriction_marchandises_dangereuses": false, "note_marchandises": null, "velo_interdit": true, "annee": 2002, "motifs": "long"}}, {"type": "Feature", "geometry": {"type": "Point", "coordinates": [10.18935, 59.72985]}, "properties": {"id": "no-tunnel-81507453", "country": "no", "name": "Strømsåstunnelen", "type": "tunnel", "source": "NVDB", "updated": "2026-09-10", "route": "E134", "kommune": 3301, "longueur_m": 3700, "sous_marin": false, "restriction_marchandises_dangereuses": false, "note_marchandises": null, "velo_interdit": true, "annee": 2001, "motifs": "long"}}, {"type": "Feature", "geometry": {"type": "Point", "coordinates": [7.61116, 60.71419]}, "properties": {"id": "no-tunnel-81509792", "country": "no", "name": "Geiteryggtunnelen", "type": "tunnel", "source": "NVDB", "updated": "2026-09-10", "route": "F50", "kommune": 3330, "longueur_m": 3290, "sous_marin": false, "restriction_marchandises_dangereuses": false, "note_marchandises": null, "velo_interdit": false, "annee": 1973, "motifs": "long"}}, {"type": "Feature", "geometry": {"type": "Point", "coordinates": [6.43505, 60.11301]}, "properties": {"id": "no-tunnel-82263141", "country": "no", "name": "Folgefonntunnelen", "type": "tunnel", "source": "NVDB", "updated": "2026-09-10", "route": "F49", "kommune": 4617, "longueur_m": 11150, "sous_marin": false, "restriction_marchandises_dangereuses": false, "note_marchandises": null, "velo_interdit": true, "annee": 2001, "motifs": "long"}}, {"type": "Feature", "geometry": {"type": "Point", "coordinates": [6.17013, 59.77484]}, "properties": {"id": "no-tunnel-82265541", "country": "no", "name": "Åkrafjordtunnelen", "type": "tunnel", "source": "NVDB", "updated": "2026-09-10", "route": "E134", "kommune": 4611, "longueur_m": 7400, "sous_marin": false, "restriction_marchandises_dangereuses": false, "note_marchandises": null, "velo_interdit": true, "annee": 2000, "motifs": "long"}}, {"type": "Feature", "geometry": {"type": "Point", "coordinates": [5.45319, 59.71323]}, "properties": {"id": "no-tunnel-82266939", "country": "no", "name": "Bømlafjordtunnelen", "type": "tunnel", "source": "NVDB", "updated": "2026-09-10", "route": "E39", "kommune": 4612, "longueur_m": 7900, "sous_marin": true, "restriction_marchandises_dangereuses": false, "note_marchandises": null, "velo_interdit": true, "annee": 2000, "motifs": "sous-marin, long"}}, {"type": "Feature", "geometry": {"type": "Point", "coordinates": [5.18394, 60.33825]}, "properties": {"id": "no-tunnel-82275202", "country": "no", "name": "Bjorøytunnelen", "type": "tunnel", "source": "NVDB", "updated": "2026-09-10", "route": "F5236", "kommune": 4601, "longueur_m": 2000, "sous_marin": true, "restriction_marchandises_dangereuses": false, "note_marchandises": null, "velo_interdit": true, "annee": 1996, "motifs": "sous-marin"}}, {"type": "Feature", "geometry": {"type": "Point", "coordinates": [5.58437, 60.8533]}, "properties": {"id": "no-tunnel-82275579", "country": "no", "name": "Masfjordtunnelen", "type": "tunnel", "source": "NVDB", "updated": "2026-09-10", "route": "E39", "kommune": 4634, "longueur_m": 4100, "sous_marin": false, "restriction_marchandises_dangereuses": false, "note_marchandises": null, "velo_interdit": true, "annee": 1995, "motifs": "long"}}, {"type": "Feature", "geometry": {"type": "Point", "coordinates": [5.8369, 60.80143]}, "properties": {"id": "no-tunnel-82287470", "country": "no", "name": "Modalentunnelen", "type": "tunnel", "source": "NVDB", "updated": "2026-09-10", "route": "F569", "kommune": 4628, "longueur_m": 3500, "sous_marin": false, "restriction_marchandises_dangereuses": false, "note_marchandises": null, "velo_interdit": false, "annee": 1976, "motifs": "long"}}, {"type": "Feature", "geometry": {"type": "Point", "coordinates": [5.52175, 60.68252]}, "properties": {"id": "no-tunnel-82295806", "country": "no", "name": "Eikefettunnelen", "type": "tunnel", "source": "NVDB", "updated": "2026-09-10", "route": "E39", "kommune": 4631, "longueur_m": 4900, "sous_marin": false, "restriction_marchandises_dangereuses": false, "note_marchandises": null, "velo_interdit": true, "annee": 1980, "motifs": "long"}}, {"type": "Feature", "geometry": {"type": "Point", "coordinates": [5.33536, 60.40527]}, "properties": {"id": "no-tunnel-82299001", "country": "no", "name": "Fløyfjelltunnelen", "type": "tunnel", "source": "NVDB", "updated": "2026-09-10", "route": "E39", "kommune": 4601, "longueur_m": 3800, "sous_marin": false, "restriction_marchandises_dangereuses": false, "note_marchandises": null, "velo_interdit": true, "annee": 1988, "motifs": "long"}}, {"type": "Feature", "geometry": {"type": "Point", "coordinates": [6.71801, 59.84117]}, "properties": {"id": "no-tunnel-82304348", "country": "no", "name": "Røldalstunnelen", "type": "tunnel", "source": "NVDB", "updated": "2026-09-10", "route": "E134", "kommune": 4618, "longueur_m": 4700, "sous_marin": false, "restriction_marchandises_dangereuses": false, "note_marchandises": null, "velo_interdit": true, "annee": 1964, "motifs": "long"}}, {"type": "Feature", "geometry": {"type": "Point", "coordinates": [7.03793, 59.84243]}, "properties": {"id": "no-tunnel-82308216", "country": "no", "name": "Haukelitunnelen", "type": "tunnel", "source": "NVDB", "updated": "2026-09-10", "route": "E134", "kommune": 4618, "longueur_m": 5700, "sous_marin": false, "restriction_marchandises_dangereuses": false, "note_marchandises": null, "velo_interdit": true, "annee": 1968, "motifs": "long"}}, {"type": "Feature", "geometry": {"type": "Point", "coordinates": [10.62224, 59.66902]}, "properties": {"id": "no-tunnel-83646549", "country": "no", "name": "Oslofjordtunnelen", "type": "tunnel", "source": "NVDB", "updated": "2026-09-10", "route": "E134", "kommune": 3214, "longueur_m": 7300, "sous_marin": true, "restriction_marchandises_dangereuses": false, "note_marchandises": null, "velo_interdit": true, "annee": 2000, "motifs": "sous-marin, long"}}, {"type": "Feature", "geometry": {"type": "Point", "coordinates": [9.95486, 63.33272]}, "properties": {"id": "no-tunnel-85330569", "country": "no", "name": "Storsandtunnelen", "type": "tunnel", "source": "NVDB", "updated": "2026-09-10", "route": "E39", "kommune": 5029, "longueur_m": 3700, "sous_marin": false, "restriction_marchandises_dangereuses": false, "note_marchandises": null, "velo_interdit": true, "annee": 2005, "motifs": "long"}}, {"type": "Feature", "geometry": {"type": "Point", "coordinates": [8.80755, 63.67717]}, "properties": {"id": "no-tunnel-85340163", "country": "no", "name": "Frøyatunnelen", "type": "tunnel", "source": "NVDB", "updated": "2026-09-10", "route": "F714", "kommune": 5014, "longueur_m": 5300, "sous_marin": true, "restriction_marchandises_dangereuses": false, "note_marchandises": null, "velo_interdit": true, "annee": 2000, "motifs": "sous-marin, long"}}, {"type": "Feature", "geometry": {"type": "Point", "coordinates": [10.84066, 63.42687]}, "properties": {"id": "no-tunnel-85341444", "country": "no", "name": "Helltunnelen", "type": "tunnel", "source": "NVDB", "updated": "2026-09-10", "route": "E6", "kommune": 5031, "longueur_m": 3900, "sous_marin": false, "restriction_marchandises_dangereuses": false, "note_marchandises": null, "velo_interdit": true, "annee": 1995, "motifs": "long"}}, {"type": "Feature", "geometry": {"type": "Point", "coordinates": [9.09714, 63.50111]}, "properties": {"id": "no-tunnel-85343137", "country": "no", "name": "Hitratunnelen", "type": "tunnel", "source": "NVDB", "updated": "2026-09-10", "route": "F714", "kommune": 5056, "longueur_m": 5700, "sous_marin": true, "restriction_marchandises_dangereuses": false, "note_marchandises": null, "velo_interdit": true, "annee": 1994, "motifs": "sous-marin, long"}}, {"type": "Feature", "geometry": {"type": "Point", "coordinates": [7.98218, 58.08693]}, "properties": {"id": "no-tunnel-86039680", "country": "no", "name": "Flekkerøytunnelen", "type": "tunnel", "source": "NVDB", "updated": "2026-09-10", "route": "F457", "kommune": 4204, "longueur_m": 2321, "sous_marin": true, "restriction_marchandises_dangereuses": false, "note_marchandises": null, "velo_interdit": false, "annee": 1989, "motifs": "sous-marin"}}, {"type": "Feature", "geometry": {"type": "Point", "coordinates": [13.71493, 66.06266]}, "properties": {"id": "no-tunnel-89186687", "country": "no", "name": "Korgfjelltunnelen", "type": "tunnel", "source": "NVDB", "updated": "2026-09-10", "route": "E6", "kommune": 1832, "longueur_m": 8600, "sous_marin": false, "restriction_marchandises_dangereuses": false, "note_marchandises": null, "velo_interdit": true, "annee": 2005, "motifs": "long"}}, {"type": "Feature", "geometry": {"type": "Point", "coordinates": [14.87253, 68.43581]}, "properties": {"id": "no-tunnel-89190788", "country": "no", "name": "Sløverfjord", "type": "tunnel", "source": "NVDB", "updated": "2026-09-10", "route": "E10", "kommune": 1866, "longueur_m": 3300, "sous_marin": true, "restriction_marchandises_dangereuses": false, "note_marchandises": null, "velo_interdit": false, "annee": 1998, "motifs": "sous-marin, long"}}, {"type": "Feature", "geometry": {"type": "Point", "coordinates": [13.86408, 66.95629]}, "properties": {"id": "no-tunnel-89191876", "country": "no", "name": "Storvikskartunnelen", "type": "tunnel", "source": "NVDB", "updated": "2026-09-10", "route": "F17", "kommune": 1838, "longueur_m": 3100, "sous_marin": false, "restriction_marchandises_dangereuses": false, "note_marchandises": null, "velo_interdit": false, "annee": 1995, "motifs": "long"}}, {"type": "Feature", "geometry": {"type": "Point", "coordinates": [16.45542, 68.14515]}, "properties": {"id": "no-tunnel-89194027", "country": "no", "name": "Brattlitunnelen", "type": "tunnel", "source": "NVDB", "updated": "2026-09-10", "route": "R827", "kommune": 1806, "longueur_m": 3600, "sous_marin": false, "restriction_marchandises_dangereuses": false, "note_marchandises": null, "velo_interdit": false, "annee": 1992, "motifs": "long"}}, {"type": "Feature", "geometry": {"type": "Point", "coordinates": [13.48767, 66.63098]}, "properties": {"id": "no-tunnel-89194521", "country": "no", "name": "Straumdalstunnelen", "type": "tunnel", "source": "NVDB", "updated": "2026-09-10", "route": "F17", "kommune": 1836, "longueur_m": 3200, "sous_marin": false, "restriction_marchandises_dangereuses": false, "note_marchandises": null, "velo_interdit": false, "annee": 1992, "motifs": "long"}}, {"type": "Feature", "geometry": {"type": "Point", "coordinates": [15.76312, 67.92746]}, "properties": {"id": "no-tunnel-89195188", "country": "no", "name": "Steigentunnelen", "type": "tunnel", "source": "NVDB", "updated": "2026-09-10", "route": "F835", "kommune": 1875, "longueur_m": 8100, "sous_marin": false, "restriction_marchandises_dangereuses": false, "note_marchandises": null, "velo_interdit": false, "annee": 1990, "motifs": "long"}}, {"type": "Feature", "geometry": {"type": "Point", "coordinates": [13.46461, 68.14713]}, "properties": {"id": "no-tunnel-89195885", "country": "no", "name": "Nappstraumtunnelen", "type": "tunnel", "source": "NVDB", "updated": "2026-09-10", "route": "E10", "kommune": 1859, "longueur_m": 1800, "sous_marin": true, "restriction_marchandises_dangereuses": false, "note_marchandises": null, "velo_interdit": false, "annee": 1990, "motifs": "sous-marin"}}, {"type": "Feature", "geometry": {"type": "Point", "coordinates": [13.08048, 65.30465]}, "properties": {"id": "no-tunnel-89199279", "country": "no", "name": "Tosentunnelen", "type": "tunnel", "source": "NVDB", "updated": "2026-09-10", "route": "F76", "kommune": 1813, "longueur_m": 5900, "sous_marin": false, "restriction_marchandises_dangereuses": false, "note_marchandises": null, "velo_interdit": false, "annee": 1986, "motifs": "long"}}, {"type": "Feature", "geometry": {"type": "Point", "coordinates": [13.95291, 66.76307]}, "properties": {"id": "no-tunnel-89201350", "country": "no", "name": "Svartistunnelen", "type": "tunnel", "source": "NVDB", "updated": "2026-09-10", "route": "F17", "kommune": 1837, "longueur_m": 7600, "sous_marin": false, "restriction_marchandises_dangereuses": false, "note_marchandises": null, "velo_interdit": true, "annee": 1986, "motifs": "long"}}, {"type": "Feature", "geometry": {"type": "Point", "coordinates": [15.87774, 67.67323]}, "properties": {"id": "no-tunnel-89202460", "country": "no", "name": "Kobbskartunnelen", "type": "tunnel", "source": "NVDB", "updated": "2026-09-10", "route": "E6", "kommune": 1845, "longueur_m": 4500, "sous_marin": false, "restriction_marchandises_dangereuses": false, "note_marchandises": null, "velo_interdit": true, "annee": 1986, "motifs": "long"}}, {"type": "Feature", "geometry": {"type": "Point", "coordinates": [10.70671, 60.27059]}, "properties": {"id": "no-tunnel-90851750", "country": "no", "name": "Lunnertunnelen", "type": "tunnel", "source": "NVDB", "updated": "2026-09-10", "route": "E16", "kommune": 3234, "longueur_m": 3800, "sous_marin": false, "restriction_marchandises_dangereuses": false, "note_marchandises": null, "velo_interdit": true, "annee": 2003, "motifs": "long"}}, {"type": "Feature", "geometry": {"type": "Point", "coordinates": [17.19602, 68.79025]}, "properties": {"id": "no-tunnel-91499576", "country": "no", "name": "Ibestadtunnelen", "type": "tunnel", "source": "NVDB", "updated": "2026-09-10", "route": "F848", "kommune": 5514, "longueur_m": 3398, "sous_marin": true, "restriction_marchandises_dangereuses": false, "note_marchandises": null, "velo_interdit": true, "annee": null, "motifs": "sous-marin, long"}}, {"type": "Feature", "geometry": {"type": "Point", "coordinates": [16.38843, 68.91456]}, "properties": {"id": "no-tunnel-91500875", "country": "no", "name": "Toppen", "type": "tunnel", "source": "NVDB", "updated": "2026-09-10", "route": "F7756", "kommune": 5503, "longueur_m": 3989, "sous_marin": false, "restriction_marchandises_dangereuses": false, "note_marchandises": null, "velo_interdit": false, "annee": 1996, "motifs": "long"}}, {"type": "Feature", "geometry": {"type": "Point", "coordinates": [10.97494, 59.03631]}, "properties": {"id": "no-tunnel-92204147", "country": "no", "name": "Hvalertunnelen", "type": "tunnel", "source": "NVDB", "updated": "2026-09-10", "route": "F108", "kommune": 3110, "longueur_m": 3775, "sous_marin": true, "restriction_marchandises_dangereuses": true, "note_marchandises": "Spesiell ordning. Tunnel stenges for transport av farlig gods.", "velo_interdit": true, "annee": 1989, "motifs": "sous-marin, long, marchandises dangereuses"}}, {"type": "Feature", "geometry": {"type": "Point", "coordinates": [25.87674, 70.98573]}, "properties": {"id": "no-tunnel-92692981", "country": "no", "name": "Honningsvågtunnelen", "type": "tunnel", "source": "NVDB", "updated": "2026-09-10", "route": "E69", "kommune": 5620, "longueur_m": 4400, "sous_marin": false, "restriction_marchandises_dangereuses": false, "note_marchandises": null, "velo_interdit": false, "annee": 1999, "motifs": "long"}}, {"type": "Feature", "geometry": {"type": "Point", "coordinates": [25.695, 70.9214]}, "properties": {"id": "no-tunnel-92694059", "country": "no", "name": "Nordkapptunnelen", "type": "tunnel", "source": "NVDB", "updated": "2026-09-10", "route": "E69", "kommune": 5620, "longueur_m": 6900, "sous_marin": true, "restriction_marchandises_dangereuses": false, "note_marchandises": null, "velo_interdit": false, "annee": 1999, "motifs": "sous-marin, long"}}, {"type": "Feature", "geometry": {"type": "Point", "coordinates": [31.07492, 70.36078]}, "properties": {"id": "no-tunnel-92696276", "country": "no", "name": "Vardøtunnelen", "type": "tunnel", "source": "NVDB", "updated": "2026-09-10", "route": "E75", "kommune": 5634, "longueur_m": 2900, "sous_marin": true, "restriction_marchandises_dangereuses": false, "note_marchandises": null, "velo_interdit": false, "annee": 1983, "motifs": "sous-marin"}}, {"type": "Feature", "geometry": {"type": "Point", "coordinates": [15.61574, 68.47571]}, "properties": {"id": "no-tunnel-159620350", "country": "no", "name": "Sørdaltunnelen", "type": "tunnel", "source": "NVDB", "updated": "2026-09-10", "route": "E10", "kommune": 1851, "longueur_m": 6400, "sous_marin": false, "restriction_marchandises_dangereuses": false, "note_marchandises": null, "velo_interdit": false, "annee": 2007, "motifs": "long"}}, {"type": "Feature", "geometry": {"type": "Point", "coordinates": [14.57956, 66.19093]}, "properties": {"id": "no-tunnel-159620355", "country": "no", "name": "Umskardtunnelen", "type": "tunnel", "source": "NVDB", "updated": "2026-09-10", "route": "E12", "kommune": 1833, "longueur_m": 3700, "sous_marin": false, "restriction_marchandises_dangereuses": false, "note_marchandises": null, "velo_interdit": false, "annee": 2006, "motifs": "long"}}, {"type": "Feature", "geometry": {"type": "Point", "coordinates": [5.88557, 62.23046]}, "properties": {"id": "no-tunnel-172028453", "country": "no", "name": "Eiksundtunnelen", "type": "tunnel", "source": "NVDB", "updated": "2026-09-10", "route": "F653", "kommune": 1577, "longueur_m": 7800, "sous_marin": true, "restriction_marchandises_dangereuses": false, "note_marchandises": null, "velo_interdit": true, "annee": 2008, "motifs": "sous-marin, long"}}, {"type": "Feature", "geometry": {"type": "Point", "coordinates": [10.81163, 59.75944]}, "properties": {"id": "no-tunnel-228222589", "country": "no", "name": "Nøstvettunnelen", "type": "tunnel", "source": "NVDB", "updated": "2026-09-10", "route": "E6", "kommune": 3207, "longueur_m": 3700, "sous_marin": false, "restriction_marchandises_dangereuses": false, "note_marchandises": null, "velo_interdit": true, "annee": 2009, "motifs": "long"}}, {"type": "Feature", "geometry": {"type": "Point", "coordinates": [10.37789, 63.43151]}, "properties": {"id": "no-tunnel-231283203", "country": "no", "name": "Skansentunnelen", "type": "tunnel", "source": "NVDB", "updated": "2026-09-10", "route": "R706", "kommune": 5001, "longueur_m": 510, "sous_marin": true, "restriction_marchandises_dangereuses": false, "note_marchandises": null, "velo_interdit": true, "annee": 2009, "motifs": "sous-marin"}}, {"type": "Feature", "geometry": {"type": "Point", "coordinates": [6.77201, 58.12875]}, "properties": {"id": "no-tunnel-237008906", "country": "no", "name": "Ravneheitunnelen", "type": "tunnel", "source": "NVDB", "updated": "2026-09-10", "route": "F465", "kommune": 4206, "longueur_m": 3300, "sous_marin": false, "restriction_marchandises_dangereuses": false, "note_marchandises": null, "velo_interdit": true, "annee": 2009, "motifs": "long"}}, {"type": "Feature", "geometry": {"type": "Point", "coordinates": [6.90185, 58.22909]}, "properties": {"id": "no-tunnel-237015594", "country": "no", "name": "Vatlandstunnelen", "type": "tunnel", "source": "NVDB", "updated": "2026-09-10", "route": "E39", "kommune": 4227, "longueur_m": 3200, "sous_marin": false, "restriction_marchandises_dangereuses": false, "note_marchandises": null, "velo_interdit": true, "annee": 2006, "motifs": "long"}}, {"type": "Feature", "geometry": {"type": "Point", "coordinates": [6.46758, 59.88245]}, "properties": {"id": "no-tunnel-237272453", "country": "no", "name": "Rullestadtunnelen", "type": "tunnel", "source": "NVDB", "updated": "2026-09-10", "route": "E134", "kommune": 4611, "longueur_m": 3000, "sous_marin": false, "restriction_marchandises_dangereuses": false, "note_marchandises": null, "velo_interdit": true, "annee": 2006, "motifs": "long"}}, {"type": "Feature", "geometry": {"type": "Point", "coordinates": [5.72444, 59.82295]}, "properties": {"id": "no-tunnel-237272461", "country": "no", "name": "Halsnøytunnelen", "type": "tunnel", "source": "NVDB", "updated": "2026-09-10", "route": "F500", "kommune": 4617, "longueur_m": 4100, "sous_marin": true, "restriction_marchandises_dangereuses": false, "note_marchandises": null, "velo_interdit": true, "annee": 2008, "motifs": "sous-marin, long"}}, {"type": "Feature", "geometry": {"type": "Point", "coordinates": [5.80634, 59.11425]}, "properties": {"id": "no-tunnel-237272467", "country": "no", "name": "Talgjetunnelen", "type": "tunnel", "source": "NVDB", "updated": "2026-09-10", "route": "F4624", "kommune": 1103, "longueur_m": 1500, "sous_marin": true, "restriction_marchandises_dangereuses": false, "note_marchandises": null, "velo_interdit": true, "annee": 2009, "motifs": "sous-marin"}}, {"type": "Feature", "geometry": {"type": "Point", "coordinates": [5.79739, 59.12458]}, "properties": {"id": "no-tunnel-237272475", "country": "no", "name": "Finnøytunnelen", "type": "tunnel", "source": "NVDB", "updated": "2026-09-10", "route": "F519", "kommune": 1103, "longueur_m": 5800, "sous_marin": true, "restriction_marchandises_dangereuses": false, "note_marchandises": null, "velo_interdit": true, "annee": 2009, "motifs": "sous-marin, long"}}, {"type": "Feature", "geometry": {"type": "Point", "coordinates": [7.66979, 63.12684]}, "properties": {"id": "no-tunnel-237342478", "country": "no", "name": "Atlanterhavstunnelen", "type": "tunnel", "source": "NVDB", "updated": "2026-09-10", "route": "F64", "kommune": 1505, "longueur_m": 5700, "sous_marin": true, "restriction_marchandises_dangereuses": false, "note_marchandises": null, "velo_interdit": true, "annee": 2009, "motifs": "sous-marin, long"}}, {"type": "Feature", "geometry": {"type": "Point", "coordinates": [10.75533, 59.9051]}, "properties": {"id": "no-tunnel-240636706", "country": "no", "name": "Operatunnelen", "type": "tunnel", "source": "NVDB", "updated": "2026-09-10", "route": "E18", "kommune": 301, "longueur_m": 5800, "sous_marin": true, "restriction_marchandises_dangereuses": false, "note_marchandises": null, "velo_interdit": true, "annee": 2010, "motifs": "sous-marin, long"}}, {"type": "Feature", "geometry": {"type": "Point", "coordinates": [22.38882, 70.1581]}, "properties": {"id": "no-tunnel-245776260", "country": "no", "name": "Øksfjordtunnelen", "type": "tunnel", "source": "NVDB", "updated": "2026-09-10", "route": "F882", "kommune": 5614, "longueur_m": 4252, "sous_marin": false, "restriction_marchandises_dangereuses": false, "note_marchandises": null, "velo_interdit": false, "annee": null, "motifs": "long"}}, {"type": "Feature", "geometry": {"type": "Point", "coordinates": [5.2684, 60.31083]}, "properties": {"id": "no-tunnel-262149662", "country": "no", "name": "Knappetunnelen", "type": "tunnel", "source": "NVDB", "updated": "2026-09-10", "route": "F557", "kommune": 4601, "longueur_m": 6500, "sous_marin": true, "restriction_marchandises_dangereuses": false, "note_marchandises": null, "velo_interdit": true, "annee": 2010, "motifs": "sous-marin, long"}}, {"type": "Feature", "geometry": {"type": "Point", "coordinates": [19.00807, 69.67473]}, "properties": {"id": "no-tunnel-275701279", "country": "no", "name": "Tromsøysundtunnelen", "type": "tunnel", "source": "NVDB", "updated": "2026-09-10", "route": "E8", "kommune": 5501, "longueur_m": 3500, "sous_marin": true, "restriction_marchandises_dangereuses": false, "note_marchandises": null, "velo_interdit": true, "annee": 1994, "motifs": "sous-marin, long"}}, {"type": "Feature", "geometry": {"type": "Point", "coordinates": [20.9017, 69.92925]}, "properties": {"id": "no-tunnel-275701285", "country": "no", "name": "Maursund", "type": "tunnel", "source": "NVDB", "updated": "2026-09-10", "route": "F866", "kommune": 5542, "longueur_m": 2122, "sous_marin": true, "restriction_marchandises_dangereuses": false, "note_marchandises": null, "velo_interdit": false, "annee": 1991, "motifs": "sous-marin"}}, {"type": "Feature", "geometry": {"type": "Point", "coordinates": [20.16365, 69.46632]}, "properties": {"id": "no-tunnel-275726633", "country": "no", "name": "Pollfjellet", "type": "tunnel", "source": "NVDB", "updated": "2026-09-10", "route": "F868", "kommune": 5536, "longueur_m": 3230, "sous_marin": false, "restriction_marchandises_dangereuses": false, "note_marchandises": null, "velo_interdit": true, "annee": 1983, "motifs": "long"}}, {"type": "Feature", "geometry": {"type": "Point", "coordinates": [19.01299, 69.81308]}, "properties": {"id": "no-tunnel-275726636", "country": "no", "name": "Kvalsund", "type": "tunnel", "source": "NVDB", "updated": "2026-09-10", "route": "F863", "kommune": 5501, "longueur_m": 1650, "sous_marin": true, "restriction_marchandises_dangereuses": false, "note_marchandises": null, "velo_interdit": false, "annee": 1988, "motifs": "sous-marin"}}, {"type": "Feature", "geometry": {"type": "Point", "coordinates": [18.7982, 69.56643]}, "properties": {"id": "no-tunnel-302060741", "country": "no", "name": "Ryatunnelen", "type": "tunnel", "source": "NVDB", "updated": "2026-09-10", "route": "F858", "kommune": 5501, "longueur_m": 2700, "sous_marin": true, "restriction_marchandises_dangereuses": false, "note_marchandises": null, "velo_interdit": false, "annee": 2011, "motifs": "sous-marin"}}, {"type": "Feature", "geometry": {"type": "Point", "coordinates": [6.68268, 60.57051]}, "properties": {"id": "no-tunnel-305887358", "country": "no", "name": "Tunsbergtunnelen", "type": "tunnel", "source": "NVDB", "updated": "2026-09-10", "route": "R13", "kommune": 4621, "longueur_m": 4100, "sous_marin": false, "restriction_marchandises_dangereuses": false, "note_marchandises": null, "velo_interdit": true, "annee": 2011, "motifs": "long"}}, {"type": "Feature", "geometry": {"type": "Point", "coordinates": [6.30211, 60.15956]}, "properties": {"id": "no-tunnel-349549730", "country": "no", "name": "Jondalstunnelen", "type": "tunnel", "source": "NVDB", "updated": "2026-09-10", "route": "F49", "kommune": 4617, "longueur_m": 10000, "sous_marin": false, "restriction_marchandises_dangereuses": false, "note_marchandises": null, "velo_interdit": true, "annee": 2012, "motifs": "long"}}, {"type": "Feature", "geometry": {"type": "Point", "coordinates": [6.46348, 62.01235]}, "properties": {"id": "no-tunnel-359579732", "country": "no", "name": "Kvivstunnelen", "type": "tunnel", "source": "NVDB", "updated": "2026-09-10", "route": "E39", "kommune": 1577, "longueur_m": 6600, "sous_marin": false, "restriction_marchandises_dangereuses": false, "note_marchandises": null, "velo_interdit": true, "annee": 2012, "motifs": "long"}}, {"type": "Feature", "geometry": {"type": "Point", "coordinates": [10.31813, 61.28833]}, "properties": {"id": "no-tunnel-370219506", "country": "no", "name": "Øyertunnelen", "type": "tunnel", "source": "NVDB", "updated": "2026-09-10", "route": "E6", "kommune": 3440, "longueur_m": 3900, "sous_marin": false, "restriction_marchandises_dangereuses": false, "note_marchandises": null, "velo_interdit": true, "annee": 2012, "motifs": "long"}}, {"type": "Feature", "geometry": {"type": "Point", "coordinates": [5.38947, 61.82444]}, "properties": {"id": "no-tunnel-392948766", "country": "no", "name": "Bortnetunnelen", "type": "tunnel", "source": "NVDB", "updated": "2026-09-10", "route": "F616", "kommune": 4648, "longueur_m": 4800, "sous_marin": false, "restriction_marchandises_dangereuses": false, "note_marchandises": "Ingen restriksjoner på transport av farlig gods", "velo_interdit": true, "annee": 2013, "motifs": "long"}}, {"type": "Feature", "geometry": {"type": "Point", "coordinates": [5.36358, 59.31462]}, "properties": {"id": "no-tunnel-434026898", "country": "no", "name": "Karmøytunnelen", "type": "tunnel", "source": "NVDB", "updated": "2026-09-10", "route": "F553", "kommune": 1149, "longueur_m": 9000, "sous_marin": true, "restriction_marchandises_dangereuses": false, "note_marchandises": "N/A", "velo_interdit": true, "annee": 2013, "motifs": "sous-marin, long"}}, {"type": "Feature", "geometry": {"type": "Point", "coordinates": [6.17881, 62.10333]}, "properties": {"id": "no-tunnel-481467690", "country": "no", "name": "Hjartåbergtunnelen", "type": "tunnel", "source": "NVDB", "updated": "2026-09-10", "route": "E39", "kommune": 1577, "longueur_m": 3500, "sous_marin": false, "restriction_marchandises_dangereuses": false, "note_marchandises": null, "velo_interdit": true, "annee": 2014, "motifs": "long"}}, {"type": "Feature", "geometry": {"type": "Point", "coordinates": [6.10128, 59.0899]}, "properties": {"id": "no-tunnel-484704991", "country": "no", "name": "Svotunnelen", "type": "tunnel", "source": "NVDB", "updated": "2026-09-10", "route": "R13", "kommune": 1130, "longueur_m": 4600, "sous_marin": false, "restriction_marchandises_dangereuses": false, "note_marchandises": null, "velo_interdit": true, "annee": 2012, "motifs": "long"}}, {"type": "Feature", "geometry": {"type": "Point", "coordinates": [9.71126, 60.28819]}, "properties": {"id": "no-tunnel-493988631", "country": "no", "name": "Ørgenviktunnelen", "type": "tunnel", "source": "NVDB", "updated": "2026-09-10", "route": "R7", "kommune": 3318, "longueur_m": 3700, "sous_marin": false, "restriction_marchandises_dangereuses": false, "note_marchandises": null, "velo_interdit": true, "annee": 2014, "motifs": "long"}}, {"type": "Feature", "geometry": {"type": "Point", "coordinates": [6.7827, 60.50955]}, "properties": {"id": "no-tunnel-536623631", "country": "no", "name": "Vallaviktunnelen", "type": "tunnel", "source": "NVDB", "updated": "2026-09-10", "route": "R13", "kommune": 4621, "longueur_m": 7500, "sous_marin": false, "restriction_marchandises_dangereuses": false, "note_marchandises": null, "velo_interdit": true, "annee": 1985, "motifs": "long"}}, {"type": "Feature", "geometry": {"type": "Point", "coordinates": [8.5642, 62.71553]}, "properties": {"id": "no-tunnel-553496535", "country": "no", "name": "Oppdølsstrandtunnelen", "type": "tunnel", "source": "NVDB", "updated": "2026-09-10", "route": "R70", "kommune": 1563, "longueur_m": 7600, "sous_marin": false, "restriction_marchandises_dangereuses": false, "note_marchandises": null, "velo_interdit": true, "annee": 2014, "motifs": "long"}}, {"type": "Feature", "geometry": {"type": "Point", "coordinates": [7.98166, 61.09028]}, "properties": {"id": "no-tunnel-573759766", "country": "no", "name": "Borlaugstunnelen", "type": "tunnel", "source": "NVDB", "updated": "2026-09-10", "route": "E16", "kommune": 4642, "longueur_m": 4100, "sous_marin": false, "restriction_marchandises_dangereuses": false, "note_marchandises": "Ingen restriksjoner på transport av farlig gods", "velo_interdit": true, "annee": 2014, "motifs": "long"}}, {"type": "Feature", "geometry": {"type": "Point", "coordinates": [13.19494, 66.04605]}, "properties": {"id": "no-tunnel-575745201", "country": "no", "name": "Toventunnelen", "type": "tunnel", "source": "NVDB", "updated": "2026-09-10", "route": "F78", "kommune": 1822, "longueur_m": 10700, "sous_marin": false, "restriction_marchandises_dangereuses": false, "note_marchandises": null, "velo_interdit": true, "annee": 2014, "motifs": "long"}}, {"type": "Feature", "geometry": {"type": "Point", "coordinates": [7.37375, 62.57148]}, "properties": {"id": "no-tunnel-579052898", "country": "no", "name": "Vågstrandstunnelen", "type": "tunnel", "source": "NVDB", "updated": "2026-09-10", "route": "E136", "kommune": 1535, "longueur_m": 3700, "sous_marin": false, "restriction_marchandises_dangereuses": false, "note_marchandises": null, "velo_interdit": true, "annee": 2014, "motifs": "long"}}, {"type": "Feature", "geometry": {"type": "Point", "coordinates": [9.96729, 61.55381]}, "properties": {"id": "no-tunnel-667841481", "country": "no", "name": "Hundorptunnelen", "type": "tunnel", "source": "NVDB", "updated": "2026-09-10", "route": "E6", "kommune": 3438, "longueur_m": 4300, "sous_marin": false, "restriction_marchandises_dangereuses": false, "note_marchandises": null, "velo_interdit": true, "annee": 2016, "motifs": "long"}}, {"type": "Feature", "geometry": {"type": "Point", "coordinates": [9.68972, 61.64361]}, "properties": {"id": "no-tunnel-670482878", "country": "no", "name": "Teigkamptunnelen", "type": "tunnel", "source": "NVDB", "updated": "2026-09-10", "route": "E6", "kommune": 3436, "longueur_m": 3600, "sous_marin": false, "restriction_marchandises_dangereuses": false, "note_marchandises": null, "velo_interdit": true, "annee": 2016, "motifs": "long"}}, {"type": "Feature", "geometry": {"type": "Point", "coordinates": [6.92388, 62.14039]}, "properties": {"id": "no-tunnel-759788303", "country": "no", "name": "Ljøtunnelen", "type": "tunnel", "source": "NVDB", "updated": "2026-09-10", "route": "F60", "kommune": 1525, "longueur_m": 3700, "sous_marin": false, "restriction_marchandises_dangereuses": false, "note_marchandises": null, "velo_interdit": false, "annee": 2016, "motifs": "long"}}, {"type": "Feature", "geometry": {"type": "Point", "coordinates": [7.26866, 62.73984]}, "properties": {"id": "no-tunnel-795582527", "country": "no", "name": "Fannefjordtunnelen", "type": "tunnel", "source": "NVDB", "updated": "2026-09-10", "route": "F64", "kommune": 1506, "longueur_m": 2740, "sous_marin": true, "restriction_marchandises_dangereuses": false, "note_marchandises": null, "velo_interdit": true, "annee": 1991, "motifs": "sous-marin"}}, {"type": "Feature", "geometry": {"type": "Point", "coordinates": [8.18434, 61.19297]}, "properties": {"id": "no-tunnel-841530222", "country": "no", "name": "Filefjelltunnelen", "type": "tunnel", "source": "NVDB", "updated": "2026-09-10", "route": "E16", "kommune": 3454, "longueur_m": 5800, "sous_marin": false, "restriction_marchandises_dangereuses": false, "note_marchandises": null, "velo_interdit": true, "annee": 2017, "motifs": "long"}}, {"type": "Feature", "geometry": {"type": "Point", "coordinates": [20.86938, 69.80955]}, "properties": {"id": "no-tunnel-842985271", "country": "no", "name": "Sørkjostunnelen", "type": "tunnel", "source": "NVDB", "updated": "2026-09-10", "route": "E6", "kommune": 5544, "longueur_m": 4600, "sous_marin": false, "restriction_marchandises_dangereuses": false, "note_marchandises": null, "velo_interdit": true, "annee": 2018, "motifs": "long"}}, {"type": "Feature", "geometry": {"type": "Point", "coordinates": [10.2065, 62.96521]}, "properties": {"id": "no-tunnel-844742466", "country": "no", "name": "Soknedalstunnelen", "type": "tunnel", "source": "NVDB", "updated": "2026-09-10", "route": "E6", "kommune": 5027, "longueur_m": 3600, "sous_marin": false, "restriction_marchandises_dangereuses": false, "note_marchandises": null, "velo_interdit": true, "annee": 2020, "motifs": "long"}}, {"type": "Feature", "geometry": {"type": "Point", "coordinates": [22.94687, 70.11179]}, "properties": {"id": "no-tunnel-856485786", "country": "no", "name": "Ailegastunnelen", "type": "tunnel", "source": "NVDB", "updated": "2026-09-10", "route": "E6", "kommune": 5601, "longueur_m": 3400, "sous_marin": false, "restriction_marchandises_dangereuses": false, "note_marchandises": null, "velo_interdit": false, "annee": 2018, "motifs": "long"}}, {"type": "Feature", "geometry": {"type": "Point", "coordinates": [20.45404, 69.54094]}, "properties": {"id": "no-tunnel-876883019", "country": "no", "name": "Nordnestunnelen", "type": "tunnel", "source": "NVDB", "updated": "2026-09-10", "route": "E6", "kommune": 5540, "longueur_m": 5700, "sous_marin": false, "restriction_marchandises_dangereuses": false, "note_marchandises": null, "velo_interdit": true, "annee": 2018, "motifs": "long"}}, {"type": "Feature", "geometry": {"type": "Point", "coordinates": [15.46044, 66.8113]}, "properties": {"id": "no-tunnel-904386795", "country": "no", "name": "Kjernfjelltunnelen", "type": "tunnel", "source": "NVDB", "updated": "2026-09-10", "route": "R77", "kommune": 1840, "longueur_m": 3200, "sous_marin": false, "restriction_marchandises_dangereuses": false, "note_marchandises": null, "velo_interdit": false, "annee": 2019, "motifs": "long"}}, {"type": "Feature", "geometry": {"type": "Point", "coordinates": [16.58146, 68.97569]}, "properties": {"id": "no-tunnel-909360338", "country": "no", "name": "Kvernsundtunnelen", "type": "tunnel", "source": "NVDB", "updated": "2026-09-10", "route": "F8670", "kommune": 5503, "longueur_m": 3200, "sous_marin": true, "restriction_marchandises_dangereuses": false, "note_marchandises": null, "velo_interdit": false, "annee": 2018, "motifs": "sous-marin, long"}}, {"type": "Feature", "geometry": {"type": "Point", "coordinates": [9.52889, 60.8408]}, "properties": {"id": "no-tunnel-980990512", "country": "no", "name": "Bagnskleivtunnelen", "type": "tunnel", "source": "NVDB", "updated": "2026-09-10", "route": "E16", "kommune": 3449, "longueur_m": 4300, "sous_marin": false, "restriction_marchandises_dangereuses": false, "note_marchandises": null, "velo_interdit": true, "annee": 2019, "motifs": "long"}}, {"type": "Feature", "geometry": {"type": "Point", "coordinates": [8.68597, 59.55815]}, "properties": {"id": "no-tunnel-981046775", "country": "no", "name": "Mælefjelltunnelen", "type": "tunnel", "source": "NVDB", "updated": "2026-09-10", "route": "E134", "kommune": 4022, "longueur_m": 9400, "sous_marin": false, "restriction_marchandises_dangereuses": false, "note_marchandises": null, "velo_interdit": true, "annee": 2019, "motifs": "long"}}, {"type": "Feature", "geometry": {"type": "Point", "coordinates": [5.8294, 59.03885]}, "properties": {"id": "no-tunnel-1004736271", "country": "no", "name": "Ryfylketunnelen", "type": "tunnel", "source": "NVDB", "updated": "2026-09-10", "route": "R13", "kommune": 1130, "longueur_m": 14500, "sous_marin": true, "restriction_marchandises_dangereuses": false, "note_marchandises": null, "velo_interdit": true, "annee": 2019, "motifs": "sous-marin, long"}}, {"type": "Feature", "geometry": {"type": "Point", "coordinates": [5.73765, 58.98324]}, "properties": {"id": "no-tunnel-1004740242", "country": "no", "name": "Hundvågtunnelen", "type": "tunnel", "source": "NVDB", "updated": "2026-09-10", "route": "R13", "kommune": 1103, "longueur_m": 6200, "sous_marin": true, "restriction_marchandises_dangereuses": false, "note_marchandises": null, "velo_interdit": true, "annee": 2020, "motifs": "sous-marin, long"}}, {"type": "Feature", "geometry": {"type": "Point", "coordinates": [5.71984, 58.96795]}, "properties": {"id": "no-tunnel-1004740899", "country": "no", "name": "Eiganestunnelen", "type": "tunnel", "source": "NVDB", "updated": "2026-09-10", "route": "E39", "kommune": 1103, "longueur_m": 3700, "sous_marin": false, "restriction_marchandises_dangereuses": false, "note_marchandises": null, "velo_interdit": true, "annee": 2020, "motifs": "long"}}, {"type": "Feature", "geometry": {"type": "Point", "coordinates": [20.7569, 69.50439]}, "properties": {"id": "no-tunnel-1005385912", "country": "no", "name": "Isfjelltunnelen", "type": "tunnel", "source": "NVDB", "updated": "2026-09-10", "route": "E6", "kommune": 5540, "longueur_m": 3200, "sous_marin": false, "restriction_marchandises_dangereuses": false, "note_marchandises": null, "velo_interdit": true, "annee": 2005, "motifs": "long"}}, {"type": "Feature", "geometry": {"type": "Point", "coordinates": [10.75944, 59.72523]}, "properties": {"id": "no-tunnel-1007847802", "country": "no", "name": "Nordbytunnelen", "type": "tunnel", "source": "NVDB", "updated": "2026-09-10", "route": "E6", "kommune": 3218, "longueur_m": 3900, "sous_marin": false, "restriction_marchandises_dangereuses": false, "note_marchandises": null, "velo_interdit": true, "annee": 1992, "motifs": "long"}}, {"type": "Feature", "geometry": {"type": "Point", "coordinates": [6.43524, 62.71553]}, "properties": {"id": "no-tunnel-1009229561", "country": "no", "name": "Fjørtoftfjordtunnelen", "type": "tunnel", "source": "NVDB", "updated": "2026-09-10", "route": "F659", "kommune": 1580, "longueur_m": 3655, "sous_marin": true, "restriction_marchandises_dangereuses": false, "note_marchandises": null, "velo_interdit": true, "annee": 2022, "motifs": "sous-marin, long"}}, {"type": "Feature", "geometry": {"type": "Point", "coordinates": [6.53174, 61.5449]}, "properties": {"id": "no-tunnel-1010937119", "country": "no", "name": "Kjøsnestunnelen", "type": "tunnel", "source": "NVDB", "updated": "2026-09-10", "route": "R5", "kommune": 4647, "longueur_m": 8600, "sous_marin": false, "restriction_marchandises_dangereuses": false, "note_marchandises": "Ingen merknad", "velo_interdit": true, "annee": 2022, "motifs": "long"}}, {"type": "Feature", "geometry": {"type": "Point", "coordinates": [7.17156, 62.15242]}, "properties": {"id": "no-tunnel-1013410930", "country": "no", "name": "Indreeidstunellen", "type": "tunnel", "source": "NVDB", "updated": "2026-09-10", "route": "F63", "kommune": 1578, "longueur_m": 4892, "sous_marin": false, "restriction_marchandises_dangereuses": false, "note_marchandises": null, "velo_interdit": false, "annee": 2024, "motifs": "long"}}, {"type": "Feature", "geometry": {"type": "Point", "coordinates": [6.25628, 62.61714]}, "properties": {"id": "no-tunnel-1014152576", "country": "no", "name": "Haramsfjordtunnelen", "type": "tunnel", "source": "NVDB", "updated": "2026-09-10", "route": "F659", "kommune": 1580, "longueur_m": 3500, "sous_marin": true, "restriction_marchandises_dangereuses": false, "note_marchandises": null, "velo_interdit": true, "annee": 2021, "motifs": "sous-marin, long"}}, {"type": "Feature", "geometry": {"type": "Point", "coordinates": [5.35407, 60.27937]}, "properties": {"id": "no-tunnel-1014282291", "country": "no", "name": "Lyshorntunnelen", "type": "tunnel", "source": "NVDB", "updated": "2026-09-10", "route": "E39", "kommune": 4601, "longueur_m": 9260, "sous_marin": false, "restriction_marchandises_dangereuses": false, "note_marchandises": null, "velo_interdit": true, "annee": 2022, "motifs": "long"}}, {"type": "Feature", "geometry": {"type": "Point", "coordinates": [6.98212, 61.95419]}, "properties": {"id": "no-tunnel-1015025628", "country": "no", "name": "Flotunnelen", "type": "tunnel", "source": "NVDB", "updated": "2026-09-10", "route": "F5722", "kommune": 4651, "longueur_m": 3800, "sous_marin": false, "restriction_marchandises_dangereuses": false, "note_marchandises": null, "velo_interdit": false, "annee": 2022, "motifs": "long"}}, {"type": "Feature", "geometry": {"type": "Point", "coordinates": [7.79006, 58.10556]}, "properties": {"id": "no-tunnel-1015030114", "country": "no", "name": "Søgnetunnelen", "type": "tunnel", "source": "NVDB", "updated": "2026-09-10", "route": "E39", "kommune": 4204, "longueur_m": 4000, "sous_marin": false, "restriction_marchandises_dangereuses": false, "note_marchandises": null, "velo_interdit": true, "annee": 2022, "motifs": "long"}}, {"type": "Feature", "geometry": {"type": "Point", "coordinates": [25.29061, 70.60646]}, "properties": {"id": "no-tunnel-1015707592", "country": "no", "name": "Skarvbergtunnelen", "type": "tunnel", "source": "NVDB", "updated": "2026-09-10", "route": "E69", "kommune": 5622, "longueur_m": 3500, "sous_marin": false, "restriction_marchandises_dangereuses": false, "note_marchandises": null, "velo_interdit": false, "annee": 2023, "motifs": "long"}}, {"type": "Feature", "geometry": {"type": "Point", "coordinates": [6.33492, 62.68057]}, "properties": {"id": "no-tunnel-1015756494", "country": "no", "name": "Nogvafjordtunnelen", "type": "tunnel", "source": "NVDB", "updated": "2026-09-10", "route": "F659", "kommune": 1580, "longueur_m": 5809, "sous_marin": true, "restriction_marchandises_dangereuses": false, "note_marchandises": null, "velo_interdit": true, "annee": 2022, "motifs": "sous-marin, long"}}, {"type": "Feature", "geometry": {"type": "Point", "coordinates": [21.5809, 69.88553]}, "properties": {"id": "no-tunnel-1017659592", "country": "no", "name": "Kvænangsfjelltunnelen", "type": "tunnel", "source": "NVDB", "updated": "2026-09-10", "route": "E6", "kommune": 5544, "longueur_m": 3500, "sous_marin": false, "restriction_marchandises_dangereuses": false, "note_marchandises": null, "velo_interdit": true, "annee": 2023, "motifs": "long"}}, {"type": "Feature", "geometry": {"type": "Point", "coordinates": [5.31697, 60.35249]}, "properties": {"id": "no-tunnel-1017852989", "country": "no", "name": "Fyllingsdalentunnel GS tunnel", "type": "tunnel", "source": "NVDB", "updated": "2026-09-10", "route": "F540", "kommune": 4601, "longueur_m": 3018, "sous_marin": false, "restriction_marchandises_dangereuses": false, "note_marchandises": null, "velo_interdit": false, "annee": 2022, "motifs": "long"}}, {"type": "Feature", "geometry": {"type": "Point", "coordinates": [10.91575, 63.52855]}, "properties": {"id": "no-tunnel-1019570523", "country": "no", "name": "Forbordsfjelltunnelen", "type": "tunnel", "source": "NVDB", "updated": "2026-09-10", "route": "E6", "kommune": 5035, "longueur_m": 6100, "sous_marin": false, "restriction_marchandises_dangereuses": false, "note_marchandises": null, "velo_interdit": true, "annee": 2026, "motifs": "long"}}, {"type": "Feature", "geometry": {"type": "Point", "coordinates": [7.12017, 58.17201]}, "properties": {"id": "no-tunnel-1021038752", "country": "no", "name": "Rossåstunnelen", "type": "tunnel", "source": "NVDB", "updated": "2026-09-10", "route": "E39", "kommune": 4225, "longueur_m": 3400, "sous_marin": false, "restriction_marchandises_dangereuses": false, "note_marchandises": null, "velo_interdit": true, "annee": 2025, "motifs": "long"}}, {"type": "Feature", "geometry": {"type": "Point", "coordinates": [5.41908, 59.06244]}, "properties": {"id": "no-tunnel-1025252242", "country": "no", "name": "Kvitsøytunnelen", "type": "tunnel", "source": "NVDB", "updated": "2026-09-10", "route": "E39", "kommune": 1144, "longueur_m": 3500, "sous_marin": true, "restriction_marchandises_dangereuses": false, "note_marchandises": null, "velo_interdit": true, "annee": 2033, "motifs": "sous-marin, long"}}, {"type": "Feature", "geometry": {"type": "Point", "coordinates": [10.35689, 59.96526]}, "properties": {"id": "no-tunnel-1025439523", "country": "no", "name": "Sollihøgdtunnelen", "type": "tunnel", "source": "NVDB", "updated": "2026-09-10", "route": "E16", "kommune": 3201, "longueur_m": 3300, "sous_marin": false, "restriction_marchandises_dangereuses": false, "note_marchandises": null, "velo_interdit": true, "annee": 2025, "motifs": "long"}}, {"type": "Feature", "geometry": {"type": "Point", "coordinates": [9.74176, 59.11209]}, "properties": {"id": "no-tunnel-1027229746", "country": "no", "name": "Bjønnåstunnelen", "type": "tunnel", "source": "NVDB", "updated": "2026-09-10", "route": "E18", "kommune": 4001, "longueur_m": 2700, "sous_marin": false, "restriction_marchandises_dangereuses": true, "note_marchandises": null, "velo_interdit": true, "annee": 2026, "motifs": "marchandises dangereuses"}}, {"type": "Feature", "geometry": {"type": "Point", "coordinates": [9.68082, 59.10428]}, "properties": {"id": "no-tunnel-1027375320", "country": "no", "name": "Grenlandstunnelen", "type": "tunnel", "source": "NVDB", "updated": "2026-09-10", "route": "E18", "kommune": 4001, "longueur_m": 5200, "sous_marin": false, "restriction_marchandises_dangereuses": false, "note_marchandises": null, "velo_interdit": true, "annee": 2026, "motifs": "long"}}]}